[{"OBJECT_NAME":"SL-14 R/B","OBJECT_ID":"1986-006B","EPOCH":"2026-03-02T22:12:02.537568","MEAN_MOTION":14.86804281,"ECCENTRICITY":0.00752133,"INCLINATION":82.5235,"RA_OF_ASC_NODE":266.1056,"ARG_OF_PERICENTER":295.678,"MEAN_ANOMALY":63.6682,"EPHEMERIS_TYPE":0,"CLASSIFICATION_TYPE":"U","NORAD_CAT_ID":16496,"ELEMENT_SET_NO":999,"REV_AT_EPOCH":14820,"BSTAR":7.3526686e-5,"MEAN_MOTION_DOT":7.15e-6,"MEAN_MOTION_DDOT":0},{"OBJECT_NAME":"COSMOS 1743","OBJECT_ID":"1986-034A","EPOCH":"2026-03-02T12:20:10.109760","MEAN_MOTION":15.57962222,"ECCENTRICITY":0.00023854,"INCLINATION":82.5297,"RA_OF_ASC_NODE":81.3594,"ARG_OF_PERICENTER":341.7759,"MEAN_ANOMALY":18.3411,"EPHEMERIS_TYPE":0,"CLASSIFICATION_TYPE":"U","NORAD_CAT_ID":16719,"ELEMENT_SET_NO":999,"REV_AT_EPOCH":17913,"BSTAR":0.00051046286,"MEAN_MOTION_DOT":0.00038323,"MEAN_MOTION_DDOT":0},{"OBJECT_NAME":"SL-14 R/B","OBJECT_ID":"1986-046B","EPOCH":"2026-03-02T22:29:25.166112","MEAN_MOTION":14.85582416,"ECCENTRICITY":0.00216311,"INCLINATION":82.4783,"RA_OF_ASC_NODE":86.5641,"ARG_OF_PERICENTER":248.9968,"MEAN_ANOMALY":110.8934,"EPHEMERIS_TYPE":0,"CLASSIFICATION_TYPE":"U","NORAD_CAT_ID":16792,"ELEMENT_SET_NO":999,"REV_AT_EPOCH":12540,"BSTAR":6.1289498e-5,"MEAN_MOTION_DOT":5.56e-6,"MEAN_MOTION_DDOT":0},{"OBJECT_NAME":"SL-14 R/B","OBJECT_ID":"1986-055B","EPOCH":"2026-03-02T16:22:43.425984","MEAN_MOTION":14.85635038,"ECCENTRICITY":0.00187956,"INCLINATION":82.5213,"RA_OF_ASC_NODE":133.2599,"ARG_OF_PERICENTER":0.1945,"MEAN_ANOMALY":162.3675,"EPHEMERIS_TYPE":0,"CLASSIFICATION_TYPE":"U","NORAD_CAT_ID":16882,"ELEMENT_SET_NO":999,"REV_AT_EPOCH":11832,"BSTAR":6.1425328e-5,"MEAN_MOTION_DOT":5.57e-6,"MEAN_MOTION_DDOT":0},{"OBJECT_NAME":"AJISAI (EGS)","OBJECT_ID":"1986-061A","EPOCH":"2026-03-02T23:17:32.070912","MEAN_MOTION":12.44515515,"ECCENTRICITY":0.0011249,"INCLINATION":50.0081,"RA_OF_ASC_NODE":114.0099,"ARG_OF_PERICENTER":269.704,"MEAN_ANOMALY":163.2119,"EPHEMERIS_TYPE":0,"CLASSIFICATION_TYPE":"U","NORAD_CAT_ID":16908,"ELEMENT_SET_NO":999,"REV_AT_EPOCH":46716,"BSTAR":0.00014192643,"MEAN_MOTION_DOT":-7.7e-7,"MEAN_MOTION_DDOT":0},{"OBJECT_NAME":"COSMOS 1812","OBJECT_ID":"1987-003A","EPOCH":"2026-03-02T22:33:20.440224","MEAN_MOTION":16.21806434,"ECCENTRICITY":0.00073655,"INCLINATION":82.4723,"RA_OF_ASC_NODE":203.3427,"ARG_OF_PERICENTER":288.5135,"MEAN_ANOMALY":71.5354,"EPHEMERIS_TYPE":0,"CLASSIFICATION_TYPE":"U","NORAD_CAT_ID":17295,"ELEMENT_SET_NO":999,"REV_AT_EPOCH":14339,"BSTAR":0.00076311055,"MEAN_MOTION_DOT":0.01654639,"MEAN_MOTION_DDOT":-1.211554e-6},{"OBJECT_NAME":"SL-14 R/B","OBJECT_ID":"1987-024B","EPOCH":"2026-03-02T13:39:19.778688","MEAN_MOTION":14.86124082,"ECCENTRICITY":0.0016694,"INCLINATION":82.5254,"RA_OF_ASC_NODE":99.4581,"ARG_OF_PERICENTER":285.6736,"MEAN_ANOMALY":74.2638,"EPHEMERIS_TYPE":0,"CLASSIFICATION_TYPE":"U","NORAD_CAT_ID":17567,"ELEMENT_SET_NO":999,"REV_AT_EPOCH":8707,"BSTAR":5.9098e-5,"MEAN_MOTION_DOT":5.43e-6,"MEAN_MOTION_DDOT":0},{"OBJECT_NAME":"COSMOS 1833","OBJECT_ID":"1987-027A","EPOCH":"2026-03-02T22:08:58.221312","MEAN_MOTION":14.13056204,"ECCENTRICITY":0.00245704,"INCLINATION":70.9233,"RA_OF_ASC_NODE":340.2396,"ARG_OF_PERICENTER":223.8955,"MEAN_ANOMALY":136.0215,"EPHEMERIS_TYPE":0,"CLASSIFICATION_TYPE":"U","NORAD_CAT_ID":17589,"ELEMENT_SET_NO":999,"REV_AT_EPOCH":936,"BSTAR":-4.5904816e-5,"MEAN_MOTION_DOT":-1.34e-6,"MEAN_MOTION_DDOT":0},{"OBJECT_NAME":"SL-16 R/B","OBJECT_ID":"1987-027B","EPOCH":"2026-03-02T21:59:17.417184","MEAN_MOTION":14.17166569,"ECCENTRICITY":0.00037409,"INCLINATION":71.002,"RA_OF_ASC_NODE":290.7696,"ARG_OF_PERICENTER":157.2068,"MEAN_ANOMALY":202.9222,"EPHEMERIS_TYPE":0,"CLASSIFICATION_TYPE":"U","NORAD_CAT_ID":17590,"ELEMENT_SET_NO":999,"REV_AT_EPOCH":1438,"BSTAR":-6.6931124e-5,"MEAN_MOTION_DOT":-1.83e-6,"MEAN_MOTION_DDOT":0},{"OBJECT_NAME":"SL-14 R/B","OBJECT_ID":"1987-038B","EPOCH":"2026-03-02T18:17:49.873056","MEAN_MOTION":14.85362054,"ECCENTRICITY":0.00190746,"INCLINATION":82.5014,"RA_OF_ASC_NODE":303.3337,"ARG_OF_PERICENTER":183.0305,"MEAN_ANOMALY":177.0799,"EPHEMERIS_TYPE":0,"CLASSIFICATION_TYPE":"U","NORAD_CAT_ID":17912,"ELEMENT_SET_NO":999,"REV_AT_EPOCH":7820,"BSTAR":5.9138644e-5,"MEAN_MOTION_DOT":5.34e-6,"MEAN_MOTION_DDOT":0},{"OBJECT_NAME":"COSMOS 1844","OBJECT_ID":"1987-041A","EPOCH":"2026-03-02T23:09:57.727872","MEAN_MOTION":14.14553195,"ECCENTRICITY":0.0029637,"INCLINATION":70.8993,"RA_OF_ASC_NODE":48.3585,"ARG_OF_PERICENTER":28.0229,"MEAN_ANOMALY":332.2481,"EPHEMERIS_TYPE":0,"CLASSIFICATION_TYPE":"U","NORAD_CAT_ID":17973,"ELEMENT_SET_NO":999,"REV_AT_EPOCH":263,"BSTAR":-1.3255991e-5,"MEAN_MOTION_DOT":-7.4e-7,"MEAN_MOTION_DDOT":0},{"OBJECT_NAME":"SL-14 R/B","OBJECT_ID":"1987-055B","EPOCH":"2026-03-02T21:00:21.927456","MEAN_MOTION":14.85619377,"ECCENTRICITY":0.00217021,"INCLINATION":82.5028,"RA_OF_ASC_NODE":355.4518,"ARG_OF_PERICENTER":39.5602,"MEAN_ANOMALY":320.7193,"EPHEMERIS_TYPE":0,"CLASSIFICATION_TYPE":"U","NORAD_CAT_ID":18153,"ELEMENT_SET_NO":999,"REV_AT_EPOCH":6892,"BSTAR":7.7938487e-5,"MEAN_MOTION_DOT":7.02e-6,"MEAN_MOTION_DDOT":0},{"OBJECT_NAME":"COSMOS 1867","OBJECT_ID":"1987-060A","EPOCH":"2026-03-02T22:39:34.049376","MEAN_MOTION":14.31501742,"ECCENTRICITY":0.00143944,"INCLINATION":65.012,"RA_OF_ASC_NODE":325.5957,"ARG_OF_PERICENTER":278.2083,"MEAN_ANOMALY":81.7369,"EPHEMERIS_TYPE":0,"CLASSIFICATION_TYPE":"U","NORAD_CAT_ID":18187,"ELEMENT_SET_NO":999,"REV_AT_EPOCH":1897,"BSTAR":3.7293459e-5,"MEAN_MOTION_DOT":-1.0e-8,"MEAN_MOTION_DDOT":0},{"OBJECT_NAME":"SL-14 R/B","OBJECT_ID":"1988-001B","EPOCH":"2026-03-02T20:52:54.108480","MEAN_MOTION":14.85517506,"ECCENTRICITY":0.00165967,"INCLINATION":82.5141,"RA_OF_ASC_NODE":201.7729,"ARG_OF_PERICENTER":260.1534,"MEAN_ANOMALY":99.7809,"EPHEMERIS_TYPE":0,"CLASSIFICATION_TYPE":"U","NORAD_CAT_ID":18749,"ELEMENT_SET_NO":999,"REV_AT_EPOCH":4101,"BSTAR":7.8557635e-5,"MEAN_MOTION_DOT":7.03e-6,"MEAN_MOTION_DDOT":0},{"OBJECT_NAME":"COSMOS 1933","OBJECT_ID":"1988-020A","EPOCH":"2026-03-02T22:25:31.277856","MEAN_MOTION":15.17910219,"ECCENTRICITY":0.00033443,"INCLINATION":82.5095,"RA_OF_ASC_NODE":257.5977,"ARG_OF_PERICENTER":207.9516,"MEAN_ANOMALY":152.1538,"EPHEMERIS_TYPE":0,"CLASSIFICATION_TYPE":"U","NORAD_CAT_ID":18958,"ELEMENT_SET_NO":999,"REV_AT_EPOCH":4920,"BSTAR":0.00023919574,"MEAN_MOTION_DOT":4.879e-5,"MEAN_MOTION_DDOT":0},{"OBJECT_NAME":"SL-3 R/B","OBJECT_ID":"1988-032B","EPOCH":"2026-03-02T22:49:51.918240","MEAN_MOTION":15.19811533,"ECCENTRICITY":0.0024092,"INCLINATION":97.5177,"RA_OF_ASC_NODE":45.2265,"ARG_OF_PERICENTER":256.8107,"MEAN_ANOMALY":103.044,"EPHEMERIS_TYPE":0,"CLASSIFICATION_TYPE":"U","NORAD_CAT_ID":19046,"ELEMENT_SET_NO":999,"REV_AT_EPOCH":5108,"BSTAR":0.0003230931,"MEAN_MOTION_DOT":6.904e-5,"MEAN_MOTION_DDOT":0},{"OBJECT_NAME":"SL-16 R/B","OBJECT_ID":"1988-039B","EPOCH":"2026-03-02T12:16:13.296000","MEAN_MOTION":14.19615352,"ECCENTRICITY":0.00223549,"INCLINATION":71.0128,"RA_OF_ASC_NODE":83.7279,"ARG_OF_PERICENTER":344.9642,"MEAN_ANOMALY":15.0816,"EPHEMERIS_TYPE":0,"CLASSIFICATION_TYPE":"U","NORAD_CAT_ID":19120,"ELEMENT_SET_NO":999,"REV_AT_EPOCH":95736,"BSTAR":9.097411e-5,"MEAN_MOTION_DOT":1.44e-6,"MEAN_MOTION_DDOT":0}]
