SL-14 R/B               
1 16496U 86006B   26061.92502937  .00000715  00000+0  73527-4 0  9998
2 16496  82.5235 266.1056 0075213 295.6780  63.6682 14.86804281148202
COSMOS 1743             
1 16719U 86034A   26061.51400590  .00038323  00000+0  51046-3 0  9991
2 16719  82.5297  81.3594 0002385 341.7759  18.3411 15.57962222179133
SL-14 R/B               
1 16792U 86046B   26061.93709683  .00000556  00000+0  61289-4 0  9994
2 16792  82.4783  86.5641 0021631 248.9968 110.8934 14.85582416125400
SL-14 R/B               
1 16882U 86055B   26061.68244706  .00000557  00000+0  61425-4 0  9999
2 16882  82.5213 133.2599 0018795   0.1945 162.3675 14.85635038118327
AJISAI (EGS)            
1 16908U 86061A   26061.97051008 -.00000077  00000+0  14193-3 0  9995
2 16908  50.0081 114.0099 0011249 269.7040 163.2119 12.44515515467169
COSMOS 1812             
1 17295U 87003A   26061.93981991  .01654639 -12116-5  76311-3 0  9998
2 17295  82.4723 203.3427 0007365 288.5135  71.5354 16.21806434143396
SL-14 R/B               
1 17567U 87024B   26061.56897892  .00000543  00000+0  59098-4 0  9992
2 17567  82.5254  99.4581 0016694 285.6736  74.2638 14.86124082 87071
COSMOS 1833             
1 17589U 87027A   26061.92289608 -.00000134  00000+0 -45905-4 0  9999
2 17589  70.9233 340.2396 0024570 223.8955 136.0215 14.13056204  9367
SL-16 R/B               
1 17590U 87027B   26061.91617381 -.00000183  00000+0 -66931-4 0  9999
2 17590  71.0020 290.7696 0003740 157.2068 202.9222 14.17166569 14387
SL-14 R/B               
1 17912U 87038B   26061.76238279  .00000534  00000+0  59139-4 0  9997
2 17912  82.5014 303.3337 0019074 183.0305 177.0799 14.85362054 78200
COSMOS 1844             
1 17973U 87041A   26061.96525148 -.00000074  00000+0 -13256-4 0  9995
2 17973  70.8993  48.3585 0029637  28.0229 332.2481 14.14553195  2630
SL-14 R/B               
1 18153U 87055B   26061.87525379  .00000702  00000+0  77938-4 0  9990
2 18153  82.5028 355.4518 0021702  39.5602 320.7193 14.85619377 68924
COSMOS 1867             
1 18187U 87060A   26061.94414409 -.00000001  00000+0  37293-4 0  9995
2 18187  65.0120 325.5957 0014394 278.2083  81.7369 14.31501742 18975
SL-14 R/B               
1 18749U 88001B   26061.87007070  .00000703  00000+0  78558-4 0  9996
2 18749  82.5141 201.7729 0016596 260.1534  99.7809 14.85517506 41018
COSMOS 1933             
1 18958U 88020A   26061.93438979  .00004879  00000+0  23920-3 0  9992
2 18958  82.5095 257.5977 0003344 207.9516 152.1538 15.17910219 49204
SL-3 R/B                
1 19046U 88032B   26061.95129535  .00006904  00000+0  32309-3 0  9993
2 19046  97.5177  45.2265 0024092 256.8107 103.0440 15.19811533 51081
SL-16 R/B               
1 19120U 88039B   26061.51126500  .00000144  00000+0  90974-4 0  9997
2 19120  71.0128  83.7279 0022354 344.9642  15.0816 14.19615352957366
